
# Worst residual: 48.52 km
# MJD 57779.000000 (2017 Jan 26  0:00)
WE0913A = DSCOVR object = 2015-007B = NORAD 40391
1 40391U 15007B   17026.49919926  .00000000  00000-0  00000-0 0    08
2 40391 076.6394 013.9736 1490174 146.0782 338.7929 00.04449120    02

# Worst residual: 45.87 km
# MJD 57780.000000 (2017 Jan 27  0:00)
WE0913A = DSCOVR object = 2015-007B = NORAD 40391
1 40391U 15007B   17027.49919926  .00000000  00000-0  00000-0 0    09
2 40391 076.6092 013.9525 1497243 142.8923 357.1583 00.04421315    05

# Worst residual: 39.53 km
# MJD 57781.000000 (2017 Jan 28  0:00)
WE0913A = DSCOVR object = 2015-007B = NORAD 40391
1 40391U 15007B   17028.49919926  .00000000  00000-0  00000-0 0    00
2 40391 076.5467 013.9315 1569135 141.4070 013.8084 00.04358397    06

# Worst residual: 33.50 km
# MJD 57782.000000 (2017 Jan 29  0:00)
WE0913A = DSCOVR object = 2015-007B = NORAD 40391
1 40391U 15007B   17029.49919926  .00000000  00000-0  00000-0 0    01
2 40391 076.4634 013.8790 1664732 142.7991 027.5965 00.04273616    02

# Worst residual: 31.44 km
# MJD 57783.000000 (2017 Jan 30  0:00)
WE0913A = DSCOVR object = 2015-007B = NORAD 40391
1 40391U 15007B   17030.49919926  .00000000  00000-0  00000-0 0    03
2 40391 076.4049 013.7914 1729594 146.1001 039.5555 00.04194145    04

# Worst residual: 35.21 km
# MJD 57784.000000 (2017 Jan 31  0:00)
WE0913A = DSCOVR object = 2015-007B = NORAD 40391
1 40391U 15007B   17031.49919926  .00000000  00000-0  00000-0 0    04
2 40391 076.4122 013.7162 1725326 149.0120 052.0989 00.04153256    03

# Worst residual: 43.03 km
# MJD 57785.000000 (2017 Feb  1  0:00)
WE0913A = DSCOVR object = 2015-007B = NORAD 40391
1 40391U 15007B   17032.49919926  .00000000  00000-0  00000-0 0    05
2 40391 076.4751 013.7120 1656954 149.3198 067.5448 00.04167965    06

# Worst residual: 47.46 km
# MJD 57786.000000 (2017 Feb  2  0:00)
WE0913A = DSCOVR object = 2015-007B = NORAD 40391
1 40391U 15007B   17033.49919926  .00000000  00000-0  00000-0 0    06
2 40391 076.5403 013.7806 1578008 146.3363 086.5634 00.04225350    07

# Worst residual: 45.31 km
# MJD 57787.000000 (2017 Feb  3  0:00)
WE0913A = DSCOVR object = 2015-007B = NORAD 40391
1 40391U 15007B   17034.49919926  .00000000  00000-0  00000-0 0    07
2 40391 076.5670 013.8586 1545385 141.3936 107.6916 00.04300005    01

# Worst residual: 37.93 km
# MJD 57788.000000 (2017 Feb  4  0:00)
WE0913A = DSCOVR object = 2015-007B = NORAD 40391
1 40391U 15007B   17035.49919926  .00000000  00000-0  00000-0 0    08
2 40391 076.5610 013.8679 1576583 136.7853 128.4814 00.04374214    09

# Worst residual: 32.45 km
# MJD 57789.000000 (2017 Feb  5  0:00)
WE0913A = DSCOVR object = 2015-007B = NORAD 40391
1 40391U 15007B   17036.49919926  .00000000  00000-0  00000-0 0    09
2 40391 076.5642 013.7671 1650793 134.1186 147.2157 00.04439687    07

# Worst residual: 34.17 km
# MJD 57790.000000 (2017 Feb  6  0:00)
WE0913A = DSCOVR object = 2015-007B = NORAD 40391
1 40391U 15007B   17037.49919926  .00000000  00000-0  00000-0 0    00
2 40391 076.6185 013.5731 1733514 133.6743 163.5648 00.04492724    08

# Worst residual: 38.22 km
# MJD 57791.000000 (2017 Feb  7  0:00)
WE0913A = DSCOVR object = 2015-007B = NORAD 40391
1 40391U 15007B   17038.49919926  .00000000  00000-0  00000-0 0    01
2 40391 076.7322 013.3456 1797794 134.8784 178.1152 00.04532513    05

# Worst residual: 39.36 km
# MJD 57792.000000 (2017 Feb  8  0:00)
WE0913A = DSCOVR object = 2015-007B = NORAD 40391
1 40391U 15007B   17039.49919926  .00000000  00000-0  00000-0 0    02
2 40391 076.8740 013.1457 1831804 136.9292 191.7383 00.04560650    07

# Worst residual: 36.23 km
# MJD 57793.000000 (2017 Feb  9  0:00)
WE0913A = DSCOVR object = 2015-007B = NORAD 40391
1 40391U 15007B   17040.49919926  .00000000  00000-0  00000-0 0    04
2 40391 076.9987 013.0014 1836243 139.1196 205.2492 00.04579726    05

# Worst residual: 29.32 km
# MJD 57794.000000 (2017 Feb 10  0:00)
WE0913A = DSCOVR object = 2015-007B = NORAD 40391
1 40391U 15007B   17041.49919926  .00000000  00000-0  00000-0 0    05
2 40391 077.0820 012.9033 1818693 140.9294 219.2754 00.04591572    09

# Worst residual: 20.23 km
# MJD 57795.000000 (2017 Feb 11  0:00)
WE0913A = DSCOVR object = 2015-007B = NORAD 40391
1 40391U 15007B   17042.49919926  .00000000  00000-0  00000-0 0    06
2 40391 077.1342 012.8283 1789789 142.0432 234.2022 00.04596785    01

# Worst residual: 11.06 km
# MJD 57796.000000 (2017 Feb 12  0:00)
WE0913A = DSCOVR object = 2015-007B = NORAD 40391
1 40391U 15007B   17043.49919926  .00000000  00000-0  00000-0 0    07
2 40391 077.1855 012.7663 1761595 142.3910 250.1162 00.04595865    00

# Worst residual: 8.78 km
# MJD 57797.000000 (2017 Feb 13  0:00)
WE0913A = DSCOVR object = 2015-007B = NORAD 40391
1 40391U 15007B   17044.49919926  .00000000  00000-0  00000-0 0    08
2 40391 077.2569 012.7262 1745044 142.2027 266.7643 00.04590553    03

# Worst residual: 14.48 km
# MJD 57798.000000 (2017 Feb 14  0:00)
WE0913A = DSCOVR object = 2015-007B = NORAD 40391
1 40391U 15007B   17045.49919926  .00000000  00000-0  00000-0 0    09
2 40391 077.3430 012.7209 1745035 141.9358 283.6465 00.04583728    01

# Worst residual: 18.21 km
# MJD 57799.000000 (2017 Feb 15  0:00)
WE0913A = DSCOVR object = 2015-007B = NORAD 40391
1 40391U 15007B   17046.49919926  .00000000  00000-0  00000-0 0    00
2 40391 077.4176 012.7469 1757159 142.0267 300.2734 00.04578500    05

# Worst residual: 18.00 km
# MJD 57800.000000 (2017 Feb 16  0:00)
WE0913A = DSCOVR object = 2015-007B = NORAD 40391
1 40391U 15007B   17047.49919926  .00000000  00000-0  00000-0 0    01
2 40391 077.4571 012.7765 1769072 142.6663 316.3948 00.04578746    03

# Worst residual: 14.52 km
# MJD 57801.000000 (2017 Feb 17  0:00)
WE0913A = DSCOVR object = 2015-007B = NORAD 40391
1 40391U 15007B   17048.49919926  .00000000  00000-0  00000-0 0    02
2 40391 077.4635 012.7733 1764443 143.6869 332.1224 00.04590494    02

# Worst residual: 13.79 km
# MJD 57802.000000 (2017 Feb 18  0:00)
WE0913A = DSCOVR object = 2015-007B = NORAD 40391
1 40391U 15007B   17049.49919926  .00000000  00000-0  00000-0 0    03
2 40391 077.4636 012.7232 1731221 144.4817 348.0313 00.04619621    06

# Worst residual: 19.97 km
# MJD 57803.000000 (2017 Feb 19  0:00)
WE0913A = DSCOVR object = 2015-007B = NORAD 40391
1 40391U 15007B   17050.49919926  .00000000  00000-0  00000-0 0    05
2 40391 077.4788 012.6470 1676615 144.2027 004.9772 00.04663941    04
